EUTELSAT 21B            
1 38992U 12062B   25299.12167057  .00000142  00000+0  00000+0 0  9993
2 38992   0.0713   2.6053 0002948 221.5204 236.0627  1.00269301 47480
EUTELSAT 70B            
1 39020U 12069A   25299.13137728 -.00000031  00000+0  00000+0 0  9994
2 39020   0.0680  11.7862 0004350 203.4901 297.2916  1.00271823 47164
EUTELSAT 117 WEST A     
1 39122U 13012A   25299.16545389 -.00000001  00000+0  00000+0 0  9992
2 39122   0.0432  67.0968 0002619 147.0763 123.4068  1.00272862 46080
EUTELSAT 7B             
1 39163U 13022A   25299.19419958  .00000060  00000+0  00000+0 0  9997
2 39163   0.0737  17.1246 0001966 294.6480 159.9779  1.00271467 45618
EXPRESS-AT1             
1 39612U 14010A   25298.66852677  .00000091  00000+0  00000+0 0  9998
2 39612   0.0178 242.8135 0000423 232.8154 215.3617  1.00271937 42469
EXPRESS-AT2             
1 39613U 14010B   25297.78937716 -.00000268  00000+0  00000+0 0  9996
2 39613   0.0154 248.5620 0000373 252.1167 316.8159  1.00272360 42143
EUTELSAT 3B             
1 39773U 14030A   25299.19419958  .00000032  00000+0  00000+0 0  9993
2 39773   0.0684  13.8022 0004367 189.9649 264.0895  1.00272757 41720
EUTELSAT 115 WEST B     
1 40425U 15010B   25299.15931134 -.00000013  00000+0  00000+0 0  9999
2 40425   0.0120 101.3934 0000226 192.6937  43.1773  1.00269632 39048
